{
  "type": "FeatureCollection",
  "features": [
    {
      "type": "Feature",
      "properties": {
        "norad_id": 41890,
        "name": "CYGFM07",
        "group": "weather",
        "lat": -0.29463355877918024,
        "lon": 137.98508222628152,
        "alt_km": 417.6274703550507,
        "timestamp": "2025-12-22T11:33:20.071965+00:00",
        "meta_object_name": "CYGFM07",
        "meta_object_id": "2016-078G",
        "meta_epoch": "2025-12-22T04:35:55.929984",
        "meta_mean_motion": 15.50379342,
        "meta_eccentricity": 0.0009869,
        "meta_inclination": 34.9485,
        "meta_ra_of_asc_node": 319.4647,
        "meta_arg_of_pericenter": 295.5396,
        "meta_mean_anomaly": 64.4305,
        "meta_ephemeris_type": 0,
        "meta_classification_type": "U",
        "meta_norad_cat_id": 41890,
        "meta_element_set_no": 999,
        "meta_rev_at_epoch": 50142,
        "meta_bstar": 0.00039701,
        "meta_mean_motion_dot": 0.00023328,
        "meta_mean_motion_ddot": 0,
        "tle_line1": "1 41890U 16078G   25356.19161956  .00023328  00000+0  39701-3 0  9993",
        "tle_line2": "2 41890  34.9485 319.4647 0009869 295.5396  64.4305 15.50379342501425"
      },
      "geometry": {
        "type": "Point",
        "coordinates": [
          137.98508222628152,
          -0.29463355877918024
        ]
      }
    },
    {
      "type": "Feature",
      "properties": {
        "norad_id": 41891,
        "name": "CYGFM03",
        "group": "weather",
        "lat": 6.666622240849524,
        "lon": -30.876045461161553,
        "alt_km": 413.3884115333385,
        "timestamp": "2025-12-22T11:33:20.071975+00:00",
        "meta_object_name": "CYGFM03",
        "meta_object_id": "2016-078H",
        "meta_epoch": "2025-12-22T02:13:56.611776",
        "meta_mean_motion": 15.50269642,
        "meta_eccentricity": 0.0009609,
        "meta_inclination": 34.9438,
        "meta_ra_of_asc_node": 322.0357,
        "meta_arg_of_pericenter": 282.2271,
        "meta_mean_anomaly": 77.7375,
        "meta_ephemeris_type": 0,
        "meta_classification_type": "U",
        "meta_norad_cat_id": 41891,
        "meta_element_set_no": 999,
        "meta_rev_at_epoch": 50138,
        "meta_bstar": 0.00038679,
        "meta_mean_motion_dot": 0.00022633,
        "meta_mean_motion_ddot": 0,
        "tle_line1": "1 41891U 16078H   25356.09301634  .00022633  00000+0  38679-3 0  9993",
        "tle_line2": "2 41891  34.9438 322.0357 0009609 282.2271  77.7375 15.50269642501389"
      },
      "geometry": {
        "type": "Point",
        "coordinates": [
          -30.876045461161553,
          6.666622240849524
        ]
      }
    },
    {
      "type": "Feature",
      "properties": {
        "norad_id": 43010,
        "name": "FENGYUN 3D",
        "group": "weather",
        "lat": 80.88328591855122,
        "lon": -117.64376789342748,
        "alt_km": 818.527402010538,
        "timestamp": "2025-12-22T11:33:20.071986+00:00",
        "meta_object_name": "FENGYUN 3D",
        "meta_object_id": "2017-072A",
        "meta_epoch": "2025-12-22T04:22:27.716736",
        "meta_mean_motion": 14.19687723,
        "meta_eccentricity": 0.0001414,
        "meta_inclination": 98.9902,
        "meta_ra_of_asc_node": 322.6338,
        "meta_arg_of_pericenter": 154.8174,
        "meta_mean_anomaly": 205.307,
        "meta_ephemeris_type": 0,
        "meta_classification_type": "U",
        "meta_norad_cat_id": 43010,
        "meta_element_set_no": 999,
        "meta_rev_at_epoch": 41987,
        "meta_bstar": 0.00024818,
        "meta_mean_motion_dot": 4.79e-06,
        "meta_mean_motion_ddot": 0,
        "tle_line1": "1 43010U 17072A   25356.18226524  .00000479  00000+0  24818-3 0  9991",
        "tle_line2": "2 43010  98.9902 322.6338 0001414 154.8174 205.3070 14.19687723419878"
      },
      "geometry": {
        "type": "Point",
        "coordinates": [
          -117.64376789342748,
          80.88328591855122
        ]
      }
    },
    {
      "type": "Feature",
      "properties": {
        "norad_id": 43013,
        "name": "NOAA 20 (JPSS-1)",
        "group": "weather",
        "lat": -54.24957859272102,
        "lon": 100.30276826298427,
        "alt_km": 835.381226494048,
        "timestamp": "2025-12-22T11:33:20.071997+00:00",
        "meta_object_name": "NOAA 20 (JPSS-1)",
        "meta_object_id": "2017-073A",
        "meta_epoch": "2025-12-22T01:59:35.244384",
        "meta_mean_motion": 14.19528104,
        "meta_eccentricity": 0.0002119,
        "meta_inclination": 98.7612,
        "meta_ra_of_asc_node": 292.278,
        "meta_arg_of_pericenter": 73.807,
        "meta_mean_anomaly": 286.3339,
        "meta_ephemeris_type": 0,
        "meta_classification_type": "U",
        "meta_norad_cat_id": 43013,
        "meta_element_set_no": 999,
        "meta_rev_at_epoch": 41934,
        "meta_bstar": 6.243e-05,
        "meta_mean_motion_dot": 8.8e-07,
        "meta_mean_motion_ddot": 0,
        "tle_line1": "1 43013U 17073A   25356.08304681  .00000088  00000+0  62430-4 0  9994",
        "tle_line2": "2 43013  98.7612 292.2780 0002119  73.8070 286.3339 14.19528104419344"
      },
      "geometry": {
        "type": "Point",
        "coordinates": [
          100.30276826298427,
          -54.24957859272102
        ]
      }
    },
    {
      "type": "Feature",
      "properties": {
        "norad_id": 43226,
        "name": "GOES 17",
        "group": "weather",
        "lat": 0.48440208290716297,
        "lon": 175.06418401892003,
        "alt_km": 35790.06358318057,
        "timestamp": "2025-12-22T11:33:20.072009+00:00",
        "meta_object_name": "GOES 17",
        "meta_object_id": "2018-022A",
        "meta_epoch": "2025-12-21T19:37:11.781408",
        "meta_mean_motion": 1.00270327,
        "meta_eccentricity": 0.0003108,
        "meta_inclination": 0.4796,
        "meta_ra_of_asc_node": 89.1184,
        "meta_arg_of_pericenter": 191.8942,
        "meta_mean_anomaly": 14.4072,
        "meta_ephemeris_type": 0,
        "meta_classification_type": "U",
        "meta_norad_cat_id": 43226,
        "meta_element_set_no": 999,
        "meta_rev_at_epoch": 2864,
        "meta_bstar": 0,
        "meta_mean_motion_dot": -1.6e-06,
        "meta_mean_motion_ddot": 0,
        "tle_line1": "1 43226U 18022A   25355.81749747 -.00000160  00000+0  00000+0 0  9993",
        "tle_line2": "2 43226   0.4796  89.1184 0003108 191.8942  14.4072  1.00270327 28642"
      },
      "geometry": {
        "type": "Point",
        "coordinates": [
          175.06418401892003,
          0.48440208290716297
        ]
      }
    },
    {
      "type": "Feature",
      "properties": {
        "norad_id": 43491,
        "name": "FENGYUN 2H",
        "group": "weather",
        "lat": -2.565584780040922,
        "lon": -16.017093314353016,
        "alt_km": 35787.78047123023,
        "timestamp": "2025-12-22T11:33:20.072022+00:00",
        "meta_object_name": "FENGYUN 2H",
        "meta_object_id": "2018-050A",
        "meta_epoch": "2025-12-22T01:33:30.594816",
        "meta_mean_motion": 1.00271057,
        "meta_eccentricity": 0.0002363,
        "meta_inclination": 2.5736,
        "meta_ra_of_asc_node": 81.232,
        "meta_arg_of_pericenter": 165.9246,
        "meta_mean_anomaly": 306.4444,
        "meta_ephemeris_type": 0,
        "meta_classification_type": "U",
        "meta_norad_cat_id": 43491,
        "meta_element_set_no": 999,
        "meta_rev_at_epoch": 2766,
        "meta_bstar": 0,
        "meta_mean_motion_dot": -1.09e-06,
        "meta_mean_motion_ddot": 0,
        "tle_line1": "1 43491U 18050A   25356.06493744 -.00000109  00000+0  00000+0 0  9992",
        "tle_line2": "2 43491   2.5736  81.2320 0002363 165.9246 306.4444  1.00271057 27668"
      },
      "geometry": {
        "type": "Point",
        "coordinates": [
          -16.017093314353016,
          -2.565584780040922
        ]
      }
    },
    {
      "type": "Feature",
      "properties": {
        "norad_id": 43689,
        "name": "METOP-C",
        "group": "weather",
        "lat": 79.8229846213011,
        "lon": -4.3415584752669325,
        "alt_km": 812.6702915752521,
        "timestamp": "2025-12-22T11:33:20.072033+00:00",
        "meta_object_name": "METOP-C",
        "meta_object_id": "2018-087A",
        "meta_epoch": "2025-12-22T04:24:05.043744",
        "meta_mean_motion": 14.21487929,
        "meta_eccentricity": 7.9e-05,
        "meta_inclination": 98.6915,
        "meta_ra_of_asc_node": 53.8077,
        "meta_arg_of_pericenter": 21.5039,
        "meta_mean_anomaly": 338.6172,
        "meta_ephemeris_type": 0,
        "meta_classification_type": "U",
        "meta_norad_cat_id": 43689,
        "meta_element_set_no": 999,
        "meta_rev_at_epoch": 36968,
        "meta_bstar": 8.6122e-05,
        "meta_mean_motion_dot": 1.45e-06,
        "meta_mean_motion_ddot": 0,
        "tle_line1": "1 43689U 18087A   25356.18339171  .00000145  00000+0  86122-4 0  9990",
        "tle_line2": "2 43689  98.6915  53.8077 0000790  21.5039 338.6172 14.21487929369685"
      },
      "geometry": {
        "type": "Point",
        "coordinates": [
          -4.3415584752669325,
          79.8229846213011
        ]
      }
    }
  ]
}